[{"OBJECT_NAME":"STARLINK-32160","OBJECT_ID":"2024-131G","EPOCH":"2026-03-09T08:33:02.040768","MEAN_MOTION":15.30196385,"ECCENTRICITY":0.00013205,"INCLINATION":53.1607,"RA_OF_ASC_NODE":54.2509,"ARG_OF_PERICENTER":84.745,"MEAN_ANOMALY":275.3702,"EPHEMERIS_TYPE":0,"CLASSIFICATION_TYPE":"U","NORAD_CAT_ID":60261,"ELEMENT_SET_NO":999,"REV_AT_EPOCH":9171,"BSTAR":-9.5980647e-5,"MEAN_MOTION_DOT":-3.2e-5,"MEAN_MOTION_DDOT":0},{"OBJECT_NAME":"IRIDIUM 45","OBJECT_ID":"1997-082A","EPOCH":"2026-03-09T19:43:04.689120","MEAN_MOTION":15.36676082,"ECCENTRICITY":0.00899413,"INCLINATION":86.3479,"RA_OF_ASC_NODE":277.5722,"ARG_OF_PERICENTER":47.6509,"MEAN_ANOMALY":313.2314,"EPHEMERIS_TYPE":0,"CLASSIFICATION_TYPE":"U","NORAD_CAT_ID":25104,"ELEMENT_SET_NO":999,"REV_AT_EPOCH":49262,"BSTAR":0.00064625537,"MEAN_MOTION_DOT":0.00026618,"MEAN_MOTION_DDOT":0}]
